start=new Date('2021-12-20T00:00:00.000Z').valueOf();
sats=[{"OBJECT_NAME":"STARLINK-2257","PERIOD":"95.591","GP_ID":"192041802","CENTER_NAME":"EARTH","DECAY_DATE":null,"MEAN_MOTION_DOT":"0.00004617","MEAN_MOTION":"15.06412587","ELEMENT_SET_NO":"999","RA_OF_ASC_NODE":"329.5740","FILE":"3244825","COUNTRY_CODE":"US","BSTAR":"0.00032854000000","SITE":"AFETR","TLE_LINE1":"1 47787U 21018A   21353.66117387  .00004617  00000-0  32854-3 0  9991","TLE_LINE2":"2 47787  53.0540 329.5740 0001811  54.1189 305.9967 15.06412587 44322","SEMIMAJOR_AXIS":"6925.310","PERIAPSIS":"545.921","CLASSIFICATION_TYPE":"U","MEAN_MOTION_DDOT":"0.0000000000000","EPOCH":"2021-12-19T15:52:05.422368","REV_AT_EPOCH":"4432","EPHEMERIS_TYPE":"0","RCS_SIZE":"LARGE","OBJECT_ID":"2021-018A","TIME_SYSTEM":"UTC","ARG_OF_PERICENTER":"54.1189","ECCENTRICITY":"0.00018110","REF_FRAME":"TEME","NORAD_CAT_ID":"47787","OBJECT_TYPE":"PAYLOAD","APOAPSIS":"548.429","MEAN_ANOMALY":"305.9967","INCLINATION":"53.0540","LAUNCH_DATE":"2021-03-11","MEAN_ELEMENT_THEORY":"SGP4"},{"RCS_SIZE":"MEDIUM","TIME_SYSTEM":"UTC","OBJECT_ID":"2021-018B","ARG_OF_PERICENTER":"47.1459","ECCENTRICITY":"0.00019050","REV_AT_EPOCH":"4472","EPHEMERIS_TYPE":"0","MEAN_MOTION_DDOT":"0.0000000000000","EPOCH":"2021-12-19T20:55:18.031872","SEMIMAJOR_AXIS":"6925.327","PERIAPSIS":"545.873","CLASSIFICATION_TYPE":"U","LAUNCH_DATE":"2021-03-11","MEAN_ELEMENT_THEORY":"SGP4","INCLINATION":"53.0679","MEAN_ANOMALY":"312.9690","OBJECT_TYPE":"PAYLOAD","APOAPSIS":"548.512","REF_FRAME":"TEME","NORAD_CAT_ID":"47788","RA_OF_ASC_NODE":"303.5320","FILE":"3244825","MEAN_MOTION":"15.06406917","ELEMENT_SET_NO":"999","DECAY_DATE":null,"MEAN_MOTION_DOT":"0.00002948","OBJECT_NAME":"STARLINK-2314","PERIOD":"95.592","CENTER_NAME":"EARTH","GP_ID":"192040550","TLE_LINE2":"2 47788  53.0679 303.5320 0001905  47.1459 312.9690 15.06406917 44723","TLE_LINE1":"1 47788U 21018B   21353.87173648  .00002948  00000-0  21671-3 0  9997","SITE":"AFETR","COUNTRY_CODE":"US","BSTAR":"0.00021671000000"},{"INCLINATION":"53.0564","LAUNCH_DATE":"2021-03-11","MEAN_ELEMENT_THEORY":"SGP4","MEAN_ANOMALY":"301.0205","OBJECT_TYPE":"PAYLOAD","APOAPSIS":"548.553","REF_FRAME":"TEME","NORAD_CAT_ID":"47789","RCS_SIZE":"LARGE","ECCENTRICITY":"0.00019480","ARG_OF_PERICENTER":"59.0975","OBJECT_ID":"2021-018C","TIME_SYSTEM":"UTC","REV_AT_EPOCH":"4465","EPHEMERIS_TYPE":"0","MEAN_MOTION_DDOT":"0.0000000000000","EPOCH":"2021-12-19T22:06:17.604576","SEMIMAJOR_AXIS":"6925.339","PERIAPSIS":"545.855","CLASSIFICATION_TYPE":"U","TLE_LINE2":"2 47789  53.0564 308.4019 0001948  59.0975 301.0205 15.06403214 44658","TLE_LINE1":"1 47789U 21018C   21353.92103709  .00000841  00000-0  75332-4 0  9999","SITE":"AFETR","BSTAR":"0.00007533200000","COUNTRY_CODE":"US","RA_OF_ASC_NODE":"308.4019","FILE":"3244825","MEAN_MOTION":"15.06403214","ELEMENT_SET_NO":"999","MEAN_MOTION_DOT":"0.00000841","DECAY_DATE":null,"OBJECT_NAME":"STARLINK-2315","PERIOD":"95.592","GP_ID":"192040800","CENTER_NAME":"EARTH"},{"RA_OF_ASC_NODE":"298.8113","FILE":"3244825","ELEMENT_SET_NO":"999","MEAN_MOTION":"15.06404174","DECAY_DATE":null,"MEAN_MOTION_DOT":"0.00002623","GP_ID":"192041552","CENTER_NAME":"EARTH","OBJECT_NAME":"STARLINK-2319","PERIOD":"95.592","TLE_LINE2":"2 47790  53.0559 298.8113 0002527  60.9903 299.1339 15.06404174 44782","TLE_LINE1":"1 47790U 21018D   21353.82980532  .00002623  00000-0  19495-3 0  9994","SITE":"AFETR","BSTAR":"0.00019495000000","COUNTRY_CODE":"US","ARG_OF_PERICENTER":"60.9903","TIME_SYSTEM":"UTC","ECCENTRICITY":"0.00025270","OBJECT_ID":"2021-018D","RCS_SIZE":"LARGE","EPHEMERIS_TYPE":"0","REV_AT_EPOCH":"4478","EPOCH":"2021-12-19T19:54:55.179648","MEAN_MOTION_DDOT":"0.0000000000000","CLASSIFICATION_TYPE":"U","PERIAPSIS":"545.451","SEMIMAJOR_AXIS":"6925.336","LAUNCH_DATE":"2021-03-11","INCLINATION":"53.0559","MEAN_ELEMENT_THEORY":"SGP4","MEAN_ANOMALY":"299.1339","OBJECT_TYPE":"PAYLOAD","APOAPSIS":"548.951","REF_FRAME":"TEME","NORAD_CAT_ID":"47790"},{"MEAN_MOTION_DDOT":"0.0000000000000","EPOCH":"2021-12-19T15:36:11.435904","SEMIMAJOR_AXIS":"6925.376","PERIAPSIS":"545.978","CLASSIFICATION_TYPE":"U","RCS_SIZE":"LARGE","ARG_OF_PERICENTER":"58.6717","ECCENTRICITY":"0.00018230","OBJECT_ID":"2021-018E","TIME_SYSTEM":"UTC","REV_AT_EPOCH":"4433","EPHEMERIS_TYPE":"0","APOAPSIS":"548.503","OBJECT_TYPE":"PAYLOAD","NORAD_CAT_ID":"47791","REF_FRAME":"TEME","INCLINATION":"53.0561","LAUNCH_DATE":"2021-03-11","MEAN_ELEMENT_THEORY":"SGP4","MEAN_ANOMALY":"301.4450","DECAY_DATE":null,"MEAN_MOTION_DOT":"-0.00000380","PERIOD":"95.593","OBJECT_NAME":"STARLINK-2322","CENTER_NAME":"EARTH","GP_ID":"192041302","FILE":"3244825","RA_OF_ASC_NODE":"329.6212","MEAN_MOTION":"15.06391117","ELEMENT_SET_NO":"999","SITE":"AFETR","BSTAR":"-0.00000657440000","COUNTRY_CODE":"US","TLE_LINE2":"2 47791  53.0561 329.6212 0001823  58.6717 301.4450 15.06391117 44338","TLE_LINE1":"1 47791U 21018E   21353.65013236 -.00000380  00000-0 -65744-5 0  9994"},{"SITE":"AFETR","BSTAR":"0.00019965000000","COUNTRY_CODE":"US","TLE_LINE2":"2 47792  53.0556 308.6683 0002261  58.7778 301.3433 15.06415850 44642","TLE_LINE1":"1 47792U 21018F   21353.86204894  .00002694  00000-0  19965-3 0  9990","MEAN_MOTION_DOT":"0.00002694","DECAY_DATE":null,"OBJECT_NAME":"STARLINK-2334","PERIOD":"95.591","GP_ID":"192040050","CENTER_NAME":"EARTH","RA_OF_ASC_NODE":"308.6683","FILE":"3244825","MEAN_MOTION":"15.06415850","ELEMENT_SET_NO":"999","OBJECT_TYPE":"PAYLOAD","APOAPSIS":"548.731","REF_FRAME":"TEME","NORAD_CAT_ID":"47792","INCLINATION":"53.0556","LAUNCH_DATE":"2021-03-11","MEAN_ELEMENT_THEORY":"SGP4","MEAN_ANOMALY":"301.3433","MEAN_MOTION_DDOT":"0.0000000000000","EPOCH":"2021-12-19T20:41:21.028416","SEMIMAJOR_AXIS":"6925.300","PERIAPSIS":"545.599","CLASSIFICATION_TYPE":"U","RCS_SIZE":"LARGE","ECCENTRICITY":"0.00022610","TIME_SYSTEM":"UTC","ARG_OF_PERICENTER":"58.7778","OBJECT_ID":"2021-018F","REV_AT_EPOCH":"4464","EPHEMERIS_TYPE":"0"},{"NORAD_CAT_ID":"47793","REF_FRAME":"TEME","APOAPSIS":"548.558","OBJECT_TYPE":"PAYLOAD","MEAN_ANOMALY":"298.2342","MEAN_ELEMENT_THEORY":"SGP4","LAUNCH_DATE":"2021-03-11","INCLINATION":"53.0565","SEMIMAJOR_AXIS":"6925.320","CLASSIFICATION_TYPE":"U","PERIAPSIS":"545.812","MEAN_MOTION_DDOT":"0.0000000000000","EPOCH":"2021-12-19T21:02:35.166624","REV_AT_EPOCH":"4463","EPHEMERIS_TYPE":"0","RCS_SIZE":"LARGE","ECCENTRICITY":"0.00019830","TIME_SYSTEM":"UTC","ARG_OF_PERICENTER":"61.8847","OBJECT_ID":"2021-018G","BSTAR":"0.00025648000000","COUNTRY_CODE":"US","SITE":"AFETR","TLE_LINE1":"1 47793U 21018G   21353.87679591  .00003542  00000-0  25648-3 0  9990","TLE_LINE2":"2 47793  53.0565 308.5916 0001983  61.8847 298.2342 15.06409302 44630","PERIOD":"95.592","OBJECT_NAME":"STARLINK-2338","GP_ID":"192040300","CENTER_NAME":"EARTH","MEAN_MOTION_DOT":"0.00003542","DECAY_DATE":null,"MEAN_MOTION":"15.06409302","ELEMENT_SET_NO":"999","FILE":"3244825","RA_OF_ASC_NODE":"308.5916"},{"APOAPSIS":"548.563","OBJECT_TYPE":"PAYLOAD","NORAD_CAT_ID":"47794","REF_FRAME":"TEME","LAUNCH_DATE":"2021-03-11","INCLINATION":"53.0555","MEAN_ELEMENT_THEORY":"SGP4","MEAN_ANOMALY":"294.5645","EPOCH":"2021-12-19T19:32:21.484320","MEAN_MOTION_DDOT":"0.0000000000000","CLASSIFICATION_TYPE":"U","PERIAPSIS":"545.830","SEMIMAJOR_AXIS":"6925.331","ECCENTRICITY":"0.00019730","TIME_SYSTEM":"UTC","OBJECT_ID":"2021-018H","ARG_OF_PERICENTER":"65.5550","RCS_SIZE":"LARGE","EPHEMERIS_TYPE":"0","REV_AT_EPOCH":"4463","SITE":"AFETR","BSTAR":"0.00010356000000","COUNTRY_CODE":"US","TLE_LINE2":"2 47794  53.0555 308.8874 0001973  65.5550 294.5645 15.06405650 44634","TLE_LINE1":"1 47794U 21018H   21353.81413755  .00001261  00000-0  10356-3 0  9999","DECAY_DATE":null,"MEAN_MOTION_DOT":"0.00001261","GP_ID":"192041052","CENTER_NAME":"EARTH","PERIOD":"95.592","OBJECT_NAME":"STARLINK-2341","FILE":"3244825","RA_OF_ASC_NODE":"308.8874","ELEMENT_SET_NO":"999","MEAN_MOTION":"15.06405650"},{"TLE_LINE1":"1 47795U 21018J   21353.60404052  .00001394  00000-0  11246-3 0  9993","TLE_LINE2":"2 47795  53.0570 309.8220 0001988  56.1452 303.9726 15.06406302 44653","COUNTRY_CODE":"US","BSTAR":"0.00011246000000","SITE":"AFETR","MEAN_MOTION":"15.06406302","ELEMENT_SET_NO":"999","FILE":"3244825","RA_OF_ASC_NODE":"309.8220","PERIOD":"95.592","OBJECT_NAME":"STARLINK-2347","GP_ID":"192041803","CENTER_NAME":"EARTH","DECAY_DATE":null,"MEAN_MOTION_DOT":"0.00001394","MEAN_ANOMALY":"303.9726","LAUNCH_DATE":"2021-03-11","MEAN_ELEMENT_THEORY":"SGP4","INCLINATION":"53.0570","NORAD_CAT_ID":"47795","REF_FRAME":"TEME","APOAPSIS":"548.571","OBJECT_TYPE":"PAYLOAD","REV_AT_EPOCH":"4465","EPHEMERIS_TYPE":"0","RCS_SIZE":"LARGE","ARG_OF_PERICENTER":"56.1452","ECCENTRICITY":"0.00019880","OBJECT_ID":"2021-018J","TIME_SYSTEM":"UTC","SEMIMAJOR_AXIS":"6925.329","PERIAPSIS":"545.817","CLASSIFICATION_TYPE":"U","MEAN_MOTION_DDOT":"0.0000000000000","EPOCH":"2021-12-19T14:29:49.100928"},{"MEAN_MOTION_DOT":"0.00001547","DECAY_DATE":null,"PERIOD":"95.591","OBJECT_NAME":"STARLINK-2373","GP_ID":"192040551","CENTER_NAME":"EARTH","FILE":"3244825","RA_OF_ASC_NODE":"309.7618","MEAN_MOTION":"15.06411635","ELEMENT_SET_NO":"999","SITE":"AFETR","COUNTRY_CODE":"US","BSTAR":"0.00012273000000","TLE_LINE2":"2 47796  53.0557 309.7618 0002115  55.8752 304.2437 15.06411635 44604","TLE_LINE1":"1 47796U 21018K   21353.61877852  .00001547  00000-0  12273-3 0  9998","MEAN_MOTION_DDOT":"0.0000000000000","EPOCH":"2021-12-19T14:51:02.464128","SEMIMAJOR_AXIS":"6925.313","PERIAPSIS":"545.713","CLASSIFICATION_TYPE":"U","RCS_SIZE":"LARGE","OBJECT_ID":"2021-018K","ECCENTRICITY":"0.00021150","TIME_SYSTEM":"UTC","ARG_OF_PERICENTER":"55.8752","REV_AT_EPOCH":"4460","EPHEMERIS_TYPE":"0","APOAPSIS":"548.643","OBJECT_TYPE":"PAYLOAD","NORAD_CAT_ID":"47796","REF_FRAME":"TEME","MEAN_ELEMENT_THEORY":"SGP4","LAUNCH_DATE":"2021-03-11","INCLINATION":"53.0557","MEAN_ANOMALY":"304.2437"}];
